NORAD_CAT_ID,OBJECT_NAME,OBJECT_TYPE,EPOCH,MEAN_MOTION,ECCENTRICITY,INCLINATION,RA_OF_ASC_NODE,ARG_OF_PERICENTER,MEAN_ANOMALY,BSTAR,MEAN_MOTION_DOT,MEAN_MOTION_DDOT,TLE_LINE0,TLE_LINE1,TLE_LINE2,SEMIMAJOR_AXIS,PERIOD,APOGEE,PERIGEE,DECAYED
52295.0,STARLINK-3765,PAYLOAD,2022-12-13 10:30:39,15.08839995,0.0002178,53.2194,6.4477,36.9845,323.1297,4.5732e-05,4.4e-06,0.0,0 STARLINK-3765,1 52295U 22041AL  22347.43795675  .00000440  00000-0  45732-4 0  9999,2 52295  53.2194   6.4477 0002178  36.9845 323.1297 15.08839995 36025,6917.88,95.438,541.252,538.239,0.0
52295.0,STARLINK-3765,PAYLOAD,2022-12-13 18:27:35,15.08842602,0.000227,53.219,4.9608,33.258,326.8555,6.026100000000001e-05,6.71e-06,0.0,0 STARLINK-3765,1 52295U 22041AL  22347.76915544  .00000671  00000-0  60261-4 0  9994,2 52295  53.2190   4.9608 0002270  33.2580 326.8555 15.08842602 36070,6917.871999999999,95.437,541.308,538.1669999999998,0.0
52295.0,STARLINK-3765,PAYLOAD,2022-12-14 07:10:40,15.08845088,0.0002302,53.22,2.5822,35.4126,324.7019,9.4963e-05,1.224e-05,0.0,0 STARLINK-3765,1 52295U 22041AL  22348.29907522  .00001224  00000-0  94963-4 0  9991,2 52295  53.2200   2.5822 0002302  35.4126 324.7019 15.08845088 37377,6917.865,95.437,541.322,538.137,0.0
52295.0,STARLINK-3765,PAYLOAD,2022-12-14 10:21:26,15.08838634,0.0002449,53.2199,1.9879,36.1397,323.976,4.0585e-05,3.58e-06,0.0,0 STARLINK-3765,1 52295U 22041AL  22348.43156103  .00000358  00000-0  40585-4 0  9996,2 52295  53.2199   1.9879 0002449  36.1397 323.9760 15.08838634 36179,6917.885,95.438,541.444,538.055,0.0
52295.0,STARLINK-3765,PAYLOAD,2022-12-15 11:47:36,15.08843578,0.0002261,53.22,357.23,36.7707,323.344,0.00015054,2.109e-05,0.0,0 STARLINK-3765,1 52295U 22041AL  22349.49139641  .00002109  00000-0  15054-3 0  9999,2 52295  53.2200 357.2300 0002261  36.7707 323.3440 15.08843578 37556,6917.869000000002,95.437,541.299,538.17,0.0
52295.0,STARLINK-3765,PAYLOAD,2022-12-15 18:09:09,15.08847195,0.000217,53.2194,356.0407,38.4579,321.6568,0.00020142,2.919e-05,0.0,0 STARLINK-3765,1 52295U 22041AL  22349.75635481  .00002919  00000-0  20142-3 0  9994,2 52295  53.2194 356.0407 0002170  38.4579 321.6568 15.08847195 36378,6917.858,95.437,541.225,538.222,0.0
52295.0,STARLINK-3765,PAYLOAD,2022-12-16 11:38:23,15.08847476,0.0002292,53.2187,352.7699,30.5588,329.5538,9.3155e-05,1.195e-05,0.0,0 STARLINK-3765,1 52295U 22041AL  22350.48499308  .00001195  00000-0  93155-4 0  9992,2 52295  53.2187 352.7699 0002292  30.5588 329.5538 15.08847476 36482,6917.858,95.437,541.308,538.137,0.0
52295.0,STARLINK-3765,PAYLOAD,2022-12-16 17:59:56,15.08837613,0.0002132,53.2186,351.5806,40.3339,319.7811,9.0128e-05,1.146e-05,0.0,0 STARLINK-3765,1 52295U 22041AL  22350.74995816  .00001146  00000-0  90128-4 0  9999,2 52295  53.2186 351.5806 0002132  40.3339 319.7811 15.08837613 37741,6917.888000000001,95.438,541.2280000000002,538.278,0.0
52295.0,STARLINK-3765,PAYLOAD,2022-12-17 11:29:10,15.08844306,0.0002283,53.2199,348.3093,39.7961,320.3199,0.00010989,1.461e-05,0.0,0 STARLINK-3765,1 52295U 22041AL  22351.47859330  .00001461  00000-0  10989-3 0  9996,2 52295  53.2199 348.3093 0002283  39.7961 320.3199 15.08844306 36638,6917.8669999999975,95.437,541.312,538.153,0.0
52295.0,STARLINK-3765,PAYLOAD,2022-12-18 03:23:02,15.088325400000002,0.0002412,53.2199,345.3354,41.0621,319.0552,-4.3708e-05,-9.84e-06,0.0,0 STARLINK-3765,1 52295U 22041AL  22352.14100518 -.00000984  00000-0 -43708-4 0  9995,2 52295  53.2199 345.3354 0002412  41.0621 319.0552 15.08832540 37959,6917.903,95.438,541.437,538.1,0.0
52295.0,STARLINK-3765,PAYLOAD,2022-12-18 09:44:35,15.08831766,0.0002267,53.2202,344.1462,37.1519,322.963,-7.0412e-05,-1.409e-05,0.0,0 STARLINK-3765,1 52295U 22041AL  22352.40596589 -.00001409  00000-0 -70412-4 0  9996,2 52295  53.2202 344.1462 0002267  37.1519 322.9630 15.08831766 36779,6917.906,95.438,541.339,538.202,0.0
52295.0,STARLINK-3765,PAYLOAD,2022-12-18 16:06:07,15.08830326,0.0002231,53.2202,342.9569,38.4189,321.6962,0.00011228,1.499e-05,0.0,0 STARLINK-3765,1 52295U 22041AL  22352.67092317  .00001499  00000-0  11228-3 0  9991,2 52295  53.2202 342.9569 0002231  38.4189 321.6962 15.08830326 36811,6917.91,95.438,541.318,538.232,0.0
52295.0,STARLINK-3765,PAYLOAD,2022-12-19 06:24:36,15.08832798,0.0002196,53.2203,340.2818,34.224000000000004,325.8894,4.0352e-05,3.54e-06,0.0,0 STARLINK-3765,1 52295U 22041AL  22353.26708547  .00000354  00000-0  40352-4 0  9996,2 52295  53.2203 340.2818 0002196  34.2240 325.8894 15.08832798 36907,6917.901999999999,95.438,541.2869999999998,538.248,0.0
52295.0,STARLINK-3765,PAYLOAD,2022-12-19 15:56:53,15.08854931,0.000235,53.2204,338.4972,31.687,328.4263,-5.4096000000000015e-06,-3.75e-06,0.0,0 STARLINK-3765,1 52295U 22041AL  22353.66451249 -.00000375  00000-0 -54096-5 0  9990,2 52295  53.2204 338.4972 0002350  31.6870 328.4263 15.08854931 36968,6917.835,95.437,541.325,538.0740000000002,0.0
52295.0,STARLINK-3765,PAYLOAD,2022-12-20 06:15:22,15.08843089,0.000224,53.2201,335.8214,33.068000000000005,327.0452,0.00021673,3.163e-05,0.0,0 STARLINK-3765,1 52295U 22041AL  22354.26067483  .00003163  00000-0  21673-3 0  9999,2 52295  53.2201 335.8214 0002240  33.0680 327.0452 15.08843089 38271,6917.871,95.437,541.286,538.186,0.0
52295.0,STARLINK-3765,PAYLOAD,2022-12-20 07:50:45,15.08845615,0.0002245,53.2199,335.524,32.9985,327.1147,0.00024171,3.561e-05,0.0,0 STARLINK-3765,1 52295U 22041AL  22354.32691250  .00003561  00000-0  24171-3 0  9999,2 52295  53.2199 335.5240 0002245  32.9985 327.1147 15.08845615 37069,6917.863,95.437,541.281,538.175,0.0
52295.0,STARLINK-3765,PAYLOAD,2022-12-21 10:52:19,15.08832705,0.0002193,53.2198,330.469,35.1455,324.9681,4.9752e-05,5.03e-06,0.0,0 STARLINK-3765,1 52295U 22041AL  22355.45300836  .00000503  00000-0  49752-4 0  9997,2 52295  53.2198 330.4690 0002193  35.1455 324.9681 15.08832705 38458,6917.903,95.438,541.285,538.251,0.0
52295.0,STARLINK-3765,PAYLOAD,2022-12-22 05:56:57,15.08838533,0.0002231,53.2197,326.9002,38.2895,321.8255,-4.318e-05,-9.75e-06,0.0,0 STARLINK-3765,1 52295U 22041AL  22356.24788912 -.00000975  00000-0 -43180-4 0  9994,2 52295  53.2197 326.9002 0002231  38.2895 321.8255 15.08838533 37355,6917.885,95.438,541.293,538.206,0.0
52295.0,STARLINK-3765,PAYLOAD,2022-12-22 21:50:48,15.08834928,0.0002273,53.2201,323.9283,38.6192,321.4963,0.00015711,2.213e-05,0.0,0 STARLINK-3765,1 52295U 22041AL  22356.91028756  .00002213  00000-0  15711-3 0  9994,2 52295  53.2201 323.9283 0002273  38.6192 321.4963 15.08834928 38671,6917.896,95.438,541.3330000000002,538.188,0.0
52295.0,STARLINK-3765,PAYLOAD,2022-12-23 04:12:21,15.08830976,0.0002305,53.2206,322.7392,38.4298,321.6858,0.00010662,1.409e-05,0.0,0 STARLINK-3765,1 52295U 22041AL  22357.17525231  .00001409  00000-0  10662-3 0  9999,2 52295  53.2206 322.7392 0002305  38.4298 321.6858 15.08830976 37498,6917.908,95.438,541.368,538.178,0.0
52295.0,STARLINK-3765,PAYLOAD,2022-12-23 15:20:04,15.08828377,0.0002532,53.2205,320.6574,37.9631,322.1539,5.8635e-05,6.45e-06,0.0,0 STARLINK-3765,1 52295U 22041AL  22357.63893874  .00000645  00000-0  58635-4 0  9995,2 52295  53.2205 320.6574 0002532  37.9631 322.1539 15.08828377 37565,6917.916,95.438,541.533,538.029,0.0
52295.0,STARLINK-3765,PAYLOAD,2022-12-24 04:03:08,15.08844476,0.0002534,53.2202,318.2793,35.1501,324.9658,0.000204,2.9600000000000005e-05,0.0,0 STARLINK-3765,1 52295U 22041AL  22358.16884692  .00002960  00000-0  20400-3 0  9992,2 52295  53.2202 318.2793 0002534  35.1501 324.9658 15.08844476 38860,6917.8669999999975,95.437,541.485,537.979,0.0
52295.0,STARLINK-3765,PAYLOAD,2022-12-24 21:32:22,15.08846071,0.000233,53.2197,315.0062,40.1492,319.9672,0.0001561,2.197e-05,0.0,0 STARLINK-3765,1 52295U 22041AL  22358.89748449  .00002197  00000-0  15610-3 0  9990,2 52295  53.2197 315.0062 0002330  40.1492 319.9672 15.08846071 37756,6917.861999999999,95.437,541.339,538.115,0.0
52295.0,STARLINK-3765,PAYLOAD,2022-12-25 07:04:42,15.08836186,0.0002562,53.2205,313.2254,35.2149,324.9012,6.5691e-05,7.57e-06,0.0,0 STARLINK-3765,1 52295U 22041AL  22359.29493304  .00000757  00000-0  65691-4 0  9997,2 52295  53.2205 313.2254 0002562  35.2149 324.9012 15.08836186 39033,6917.892,95.438,541.529,537.985,0.0
52295.0,STARLINK-3765,PAYLOAD,2022-12-26 13:17:02,15.0884065,0.0002366,53.2212,307.5743,42.3145,317.8029,-5.9296e-05,-1.232e-05,0.0,0 STARLINK-3765,1 52295U 22041AL  22360.55349624 -.00001232  00000-0 -59296-4 0  9998,2 52295  53.2212 307.5743 0002366  42.3145 317.8029 15.08840650 39228,6917.878000000002,95.438,541.38,538.107,0.0
52295.0,STARLINK-3765,PAYLOAD,2022-12-26 21:13:57,15.08837468,0.000226,53.2208,306.0871,39.6134,320.5023,5.4042e-05,5.72e-06,0.0,0 STARLINK-3765,1 52295U 22041AL  22360.88469517  .00000572  00000-0  54042-4 0  9996,2 52295  53.2208 306.0871 0002260  39.6134 320.5023 15.08837468 38057,6917.888000000001,95.438,541.317,538.19,0.0
52295.0,STARLINK-3765,PAYLOAD,2022-12-27 03:35:30,15.08838424,0.0002242,53.2204,304.8981,40.5472,319.5687,6.1932e-05,6.97e-06,0.0,0 STARLINK-3765,1 52295U 22041AL  22361.14965472  .00000697  00000-0  61932-4 0  9991,2 52295  53.2204 304.8981 0002242  40.5472 319.5687 15.08838424 38098,6917.885,95.438,541.3009999999998,538.1990000000002,0.0
52295.0,STARLINK-3765,PAYLOAD,2022-12-27 13:07:48,15.0884726,0.0002261,53.2202,303.1135,41.0721,319.0441,0.00018671,2.685e-05,0.0,0 STARLINK-3765,1 52295U 22041AL  22361.54708598  .00002685  00000-0  18671-3 0  9999,2 52295  53.2202 303.1135 0002261  41.0721 319.0441 15.08847260 39376,6917.858,95.437,541.2869999999998,538.159,0.0
52295.0,STARLINK-3765,PAYLOAD,2022-12-28 05:01:39,15.08851456,0.0002253,53.2206,300.1402,40.5404,319.5755,0.00020853,3.033e-05,0.0,0 STARLINK-3765,1 52295U 22041AL  22362.20948068  .00003033  00000-0  20853-3 0  9994,2 52295  53.2206 300.1402 0002253  40.5404 319.5755 15.08851456 38258,6917.845,95.437,541.269,538.1519999999998,0.0
